{"type": "FeatureCollection", "features": [ {"type": "Feature", "properties": {"norad_id": 64901, "name": "CO3D 4", "group": "resource", "lat": 7.599154057670196, "lon": -119.2649603310468, "alt_km": 506.72338289688014, "timestamp": "2025-12-09T07:41:32.860969+00:00", "meta": {"OBJECT_NAME": "CO3D 4", "OBJECT_ID": "2025-156C", "EPOCH": "2025-12-08T23:02:18.720096", "MEAN_MOTION": 15.20206038, "ECCENTRICITY": 0.00010591, "INCLINATION": 97.434, "RA_OF_ASC_NODE": 59.3815, "ARG_OF_PERICENTER": 218.3977, "MEAN_ANOMALY": 141.7183, "EPHEMERIS_TYPE": 0, "CLASSIFICATION_TYPE": "U", "NORAD_CAT_ID": 64901, "ELEMENT_SET_NO": 999, "REV_AT_EPOCH": 2063, "BSTAR": 0.00049517239, "MEAN_MOTION_DOT": 0.00010668, "MEAN_MOTION_DDOT": 0}, "tle": {"line1": "1 64901U 25156C   25342.95993889  .00010668  00000+0  49517-3 0  9994", "line2": "2 64901  97.4340  59.3815 0001059 218.3977 141.7183 15.20206038 20635"}}, "geometry": {"type": "Point", "coordinates": [-119.2649603310468, 7.599154057670196]}}, {"type": "Feature", "properties": {"norad_id": 64902, "name": "CO3D 2", "group": "resource", "lat": -5.468789659639226, "lon": 60.35175066796302, "alt_km": 509.0197935461165, "timestamp": "2025-12-09T07:41:32.860979+00:00", "meta": {"OBJECT_NAME": "CO3D 2", "OBJECT_ID": "2025-156D", "EPOCH": "2025-12-08T23:49:04.736352", "MEAN_MOTION": 15.20209929, "ECCENTRICITY": 9.456e-05, "INCLINATION": 97.434, "RA_OF_ASC_NODE": 59.3121, "ARG_OF_PERICENTER": 90.4711, "MEAN_ANOMALY": 269.6632, "EPHEMERIS_TYPE": 0, "CLASSIFICATION_TYPE": "U", "NORAD_CAT_ID": 64902, "ELEMENT_SET_NO": 999, "REV_AT_EPOCH": 2063, "BSTAR": 0.00033700537, "MEAN_MOTION_DOT": 7.236e-05, "MEAN_MOTION_DDOT": 0}, "tle": {"line1": "1 64902U 25156D   25342.99241593  .00007236  00000+0  33701-3 0  9992", "line2": "2 64902  97.4340  59.3121 0000945  90.4711 269.6632 15.20209929 20635"}}, "geometry": {"type": "Point", "coordinates": [60.35175066796302, -5.468789659639226]}}, {"type": "Feature", "properties": {"norad_id": 64903, "name": "CO3D 1", "group": "resource", "lat": -6.3310747145943065, "lon": 60.46561116752878, "alt_km": 509.27093917440106, "timestamp": "2025-12-09T07:41:32.860990+00:00", "meta": {"OBJECT_NAME": "CO3D 1", "OBJECT_ID": "2025-156E", "EPOCH": "2025-12-08T23:49:18.257088", "MEAN_MOTION": 15.20197967, "ECCENTRICITY": 9.669e-05, "INCLINATION": 97.4341, "RA_OF_ASC_NODE": 59.3123, "ARG_OF_PERICENTER": 99.3725, "MEAN_ANOMALY": 260.762, "EPHEMERIS_TYPE": 0, "CLASSIFICATION_TYPE": "U", "NORAD_CAT_ID": 64903, "ELEMENT_SET_NO": 999, "REV_AT_EPOCH": 2063, "BSTAR": 0.00034010845, "MEAN_MOTION_DOT": 7.301e-05, "MEAN_MOTION_DDOT": 0}, "tle": {"line1": "1 64903U 25156E   25342.99257242  .00007301  00000+0  34011-3 0  9999", "line2": "2 64903  97.4341  59.3123 0000966  99.3725 260.7620 15.20197967 20632"}}, "geometry": {"type": "Point", "coordinates": [60.46561116752878, -6.3310747145943065]}}, {"type": "Feature", "properties": {"norad_id": 66514, "name": "SENTINEL-6B", "group": "resource", "lat": 16.731552530400265, "lon": -18.135046699731113, "alt_km": 1329.400378409341, "timestamp": "2025-12-09T07:41:32.861000+00:00", "meta": {"OBJECT_NAME": "SENTINEL-6B", "OBJECT_ID": "2025-264A", "EPOCH": "2025-12-08T21:30:18.918720", "MEAN_MOTION": 12.84031984, "ECCENTRICITY": 0.00210409, "INCLINATION": 66.0385, "RA_OF_ASC_NODE": 170.4334, "ARG_OF_PERICENTER": 268.2483, "MEAN_ANOMALY": 91.6124, "EPHEMERIS_TYPE": 0, "CLASSIFICATION_TYPE": "U", "NORAD_CAT_ID": 66514, "ELEMENT_SET_NO": 999, "REV_AT_EPOCH": 279, "BSTAR": 0.00010479155, "MEAN_MOTION_DOT": -3.6e-07, "MEAN_MOTION_DDOT": 0}, "tle": {"line1": "1 66514U 25264A   25342.89605230 -.00000036  00000+0  10479-3 0  9993", "line2": "2 66514  66.0385 170.4334 0021040 268.2483  91.6124 12.84031984  2795"}}, "geometry": {"type": "Point", "coordinates": [-18.135046699731113, 16.731552530400265]}}]}